First Name	Last Name	Address	City	Email Address	Magic Number
Latasha	Acevedo	1873 View Circle	Altus	otcjdxf@kvhsgwztfw.com	914650433
Lily	Bauman	1592 Elm Street	Rosedale	yzzkuqp@zyttheczbj.com	1927774305
Deontae	Bautista	1227 Lake Blvd.	Elkhorn	yszavil@vbhylfbbwy.com	971926830
Ermentrude	Beckett	4220 Elm Avenue	Spencer	xxdcplw@uylzpppobt.com	1574079865
Trey	Blackmon	3238 Ninth Road	Harper Woods	crzdwsa@uyphqtsvrx.com	40165826
Gefen	Blocker	4469 First Road	Langley Park	nivovcx@pfpqzquswt.com	89392324
Blossom	Boyd	1039 Eighth Street	Exeter	ikicfav@qufxwawirm.com	539498484
Jackie	Bracken	3114 Main Road	Hasbrouck Heights	nuquqvo@fyevwbyqhi.com	1703885554
Merlin	Brim	3791 Third Circle	Orono	kmdpdyy@tjwxyjyiwo.com	311739635
Carleen	Britt	3900 Fifth Street	Le Roy	esicnrx@idafhpwktj.com	2085891345
Hollis	Brody	3268 First Blvd.	Brook Park	dibslqs@lndiqirzdo.com	724803066
Katia	Burns	1725 Lake Circle	Hickory Hills	qjdhyog@ckzuhrzsuo.com	661712634
Marguerite	Caldwell	1314 Main Circle	Bethesda	evzlvxu@btwyotuscy.com	113370400
Elda	Canady	2089 Pine Street	Jeffersontown	rahctso@rhtxmllepm.com	1735225707
Annalise	Cano	4075 Park Road	Big Spring	lmpazma@uxjtqkscnj.com	1156563361
Aileen	Cardona	3322 First Road	Streetsboro	ngxvsnu@idzopudfux.com	2133754797
Dalia	Carmichael	2393 View Street	El Paso	qpmgqcr@vtezigedzj.com	1657794797
Eternity	Carvalho	1514 Eighth Street	Northville	vhdtmpw@wklsmffigk.com	669414826
Kita	Carver	3362 Fifth Blvd.	Louisville	mxkewak@ijdorcxrlr.com	1614992233
Montgomery	Catalano	4290 Elm Blvd.	Gahanna	aovqywt@rtthnbsdyy.com	27598400
Genaro	Cerda	361 Maple Blvd.	Geneva	exrektx@rnskzhliho.com	1059743728
Merle	Childress	2926 Second Street	Webster City	fmjqfuv@hgukueziuc.com	489212151
Anderson	Chong	1580 First Road	Aspen Hill	dplvwfb@rheuykkojg.com	1224193606
Darrian	Chong	3766 Seventh Street	Harrisonburg	yuajrim@uzrvxpfckd.com	1479967993
Oran	Christian	251 Park Circle	Belle Chasse	vilpeio@jcfbotzdlx.com	1490272791
Giovanna	Christopher	642 Sixth Street	Festus	aqbhric@ajvctknzmc.com	1100763297
Lynna	Church	1545 Sixth Blvd.	Crete	lbabcjj@mowrnrfwke.com	796005611
Collin	Clancy	1276 View Street	Wright-Patterson AFB	sgmfxtd@dqdmxnkeqz.com	56584833
Errol	Coburn	768 Main Circle	Trooper	dbwxdhm@kwstfvyzgu.com	1374781724
Allene	Coe	1741 Fourth Road	Urbandale	dmkuich@fgapchxcpe.com	2144138898
Ianessa	Conner	2147 Main Road	Shelburne	kfvqiay@aewrfpreiq.com	868154933
Syed	Coughlin	1187 Hill Blvd.	Coral Springs	ipmshej@hhmfxhbssz.com	1704113486
John	Craig	1686 View Circle	Orland	jechxwg@jixlbpfmge.com	1096699374
Hallie	Crane	885 Main Street	Dyer	gxitfvo@fmiltsmknq.com	1015121398
Li Ming	Cronin	1676 Seventh Blvd.	Dunbar	jayvxes@aqzgqpewor.com	1181900858
Denton	Crosby	976 Fifth Road	Waukegan	hbilgsc@mqmhljoiqw.com	8058029
Mardell	Crouch	4188 Oak Avenue	West Sacramento	bdcsaho@rckuuwajcy.com	681510721
Odell	Curley	1919 Fifth Road	Mercer Island	nbammav@mposiqykam.com	1248284767
Kingsley	Curley	2936 Ninth Road	Albuquerque	zhtuaba@jlzdsoigdc.com	1916056959
Christian	Curtin	952 Sixth Road	Fresno	clhzmkb@wnpyfmzkci.com	1766938952
Margery	Danner	2417 Lake Road	Huron	hfcrwjo@awetybekfv.com	1839838979
Heba	Deleon	2091 Eighth Road	Los Angeles	adszcim@accymrshdw.com	684047803
Marsha	Deleon	2485 Seventh Avenue	Hamilton	lmxvovv@cmdiyfdqag.com	737797097
Vonnie	Delgadillo	2946 Sixth Avenue	Succasunna-Kenvil	lgsccuw@jjukmfzcwz.com	163508389
Bowen	Delossantos	2915 Fifth Street	Oxford	zthbtyg@woezrkberu.com	744278715
Remington	Dewitt	4122 Cedar Avenue	Beverly	sjgqhba@dsibrjvizj.com	115135449
Sergio	Donnell	3978 First Blvd.	Dallas	njqhtje@ljmakbvtfb.com	272629184
Salma	Driscoll	2950 Main Blvd.	Andrews	ytdzzfd@btcxlrpbea.com	37458222
Noah	Eaves	3275 Elm Blvd.	Shiloh	dqnmqkt@lbiuiuhrnv.com	257957483
Steven	Eddy	809 Seventh Blvd.	Anaconda	ihgjajt@udedolmxmz.com	653627120
Domenic	Ellison	2454 Park Street	New Kensington	zqesosm@cldjlrrboi.com	1668498177
Carl	Espinal	3751 Fourth Avenue	Ashwaubenon	uepwssf@pexgxegmom.com	962498466
Milford	Ethridge	3431 Fifth Road	Darlington	hutruln@mkxqaqdkhf.com	2029815323
Jazmine	Farias	3576 Oak Circle	Franklin	dnvmidr@naeqpaohey.com	1452804859
Kabira	Feeney	1990 Main Circle	Deerpark	pmeqtfq@vypczzdvao.com	1321355937
Chantal	Fishman	3773 Seventh Road	Brookhaven	mpwcngz@vgplefztyb.com	2038710450
Andres	Fontaine	1760 Third Road	Holliston	pheigkt@xykpbkhkle.com	1904807959
Christen	Fort	1630 Eighth Circle	Worth	sfbzhzi@jvsmnyuzrq.com	223710941
Damell	Frank	2416 First Avenue	Glenn Heights	haajovd@vfeqbrnsrf.com	1586564496
Yosef	Franz	2018 Sixth Street	Skaneateles	nafynim@rxrixkcpsd.com	581667024
Gracelyn	Funderburk	1157 Ninth Road	Orangeburg	xhxhyqv@uziqdfdzzf.com	1136809146
Gorham	Funk	4026 Main Avenue	Owensboro	timveee@nifsakhspg.com	1824871707
Juliette	Gage	881 Seventh Street	North Salt Lake	wogukgi@ghfzxmfksi.com	1902990166
Auryon	Gage	3930 Sixth Street	Mountain Top	tjnnwve@wftogqcchu.com	2093062212
Lourdes	Gallardo	3858 Ninth Blvd.	Ronkonkoma	ovimgng@ykqklbgdpw.com	403239639
Irene	Galloway	3891 Lake Circle	Altoona	nmetwsq@zmhzeioauv.com	386284744
Areli	Gary	1587 Elm Blvd.	Gretna	gkligtn@vwavyxydyc.com	786860570
Aliana	Geary	3653 Lake Street	Highlands	ondlckw@dlipnpdsck.com	71520666
Myrtis	Gill	995 Third Road	Raymond	dpgnptj@pmzfwnkhrj.com	1890460018
Brisbane	Gilmore	570 Fifth Street	Souderton	irnjeiz@ywnekpxlsp.com	668664756
Heaven	Glaze	2668 Ninth Circle	Bay St. Louis	gzpxquq@ugktwcvvxe.com	577808693
Aurelia	Gleason	4222 Lake Avenue	Bow	jdpzskf@wyzrdomrxx.com	171819942
Hina	Goode	1904 Washington Road	New Scotland	okusmtt@xcvzzperbe.com	86214202
Maurice	Goodman	2472 First Avenue	Whitmore Lake	thyumnc@vtrzjyxeiw.com	1818098772
Royce	Gunn	2417 Pine Avenue	Gages Lake	nxtbxju@wtfdmiqsgm.com	409042561
Rhoda	Hallman	950 View Road	Roseville	edphqyy@fyxnnjzsxo.com	1974795778
Aleshanee	Hamer	47 Pine Circle	Perry Heights	kkgykth@tltgkitosu.com	1159358443
Nan	Handy	1483 Cedar Blvd.	Fort Stewart	wkrvitu@gxzrerbooo.com	902019982
Syed	Hannan	1254 Elm Street	Troy	bheggrp@oyzshuqhap.com	1887647253
Ainsley	Harms	4022 Sixth Blvd.	Palm Bay	iyinefd@qqqnnzbkqp.com	514936764
Darryl	Hartley	4030 View Blvd.	Granite City	dmcnssz@mkbtyxdwtm.com	413072707
Fannie	Hartley	2848 Fourth Circle	Newton	wubkihe@hxsisisxmw.com	1548856957
Marisa	Headrick	3293 Oak Road	Berea	jjytijx@mkjktrvlqm.com	913583437
Bob	Held	134 View Circle	Bound Brook	sknlysc@innewxswea.com	882619495
Brady	Holm	2848 Lake Road	Sutherlin	pwswezr@ybcifvltar.com	617129378
Lona	Holtz	2776 Fourth Avenue	Absecon	vpnplpk@pyxfjjyqru.com	1860955242
Jules	Hooker	1022 Third Circle	Municipality of Murrysville	orfojhm@mjczrgiyxf.com	1370561629
Calida	Hoppe	224 Main Street	Sanford	nekdwkg@ejkexsuvwm.com	1692258320
Delilah	Houston	428 Pine Avenue	Ridgeway	aythsjb@thdpzovkeg.com	768137776
Rollie	Jasper	174 Third Blvd.	Medford	sfwrmcc@wmlfhibfyq.com	1271010182
Darrell	Jenkins	2311 First Street	Valley Station	lisidbz@eaqzjdqily.com	1871793412
Milward	Jose	1393 Lake Road	Lemay	booafkj@yxmbfhztxf.com	167083969
Georgene	Julian	672 Elm Street	Hollis	ujerbdh@fclpwhejvy.com	1833296860
Bibiane	Keen	4496 Fourth Blvd.	Palos Hills	wdmykfg@bezckxqrwv.com	1865636407
Claude	Kelso	4501 Cedar Road	Belpre	npibelo@nvoarrhkda.com	721924983
Deliz	Kemper	4413 First Street	Ponce	mqfwrdn@rgtggmkewv.com	153578344
Barnaby	Kenney	1537 View Street	Lake City	rsbbluf@rlceddfsjl.com	1341561180
Kaylin	Kerns	4631 Main Circle	Danville	agokwew@smyxwnlomf.com	1577712302
Brandee	Kessler	1286 First Street	Kingsburg	actcjfj@tfhjybroun.com	1918613109
Quinn	Keys	4404 Oak Circle	East Rutherford	htipuoa@jjsgtgeszw.com	108427292
Zelda	Kidwell	3514 Park Circle	Moorhead	bmexzqz@oxtoiijgwa.com	1749285212
Dorris	Kincaid	492 Oak Street	Batesville	hgbomzf@klwlevuskd.com	1082579644
Tristan	Kinder	1547 Park Avenue	North Castle	voufldd@hgyicvorqq.com	63959983
Barnaby	Kirkland	1534 Maple Road	Yuba City	qbuytfc@tkhftldrpu.com	2063434854
Aki	Knoll	2117 Oak Street	Collegeville	lglvvpk@jhdbrpwjre.com	178795451
Kaylah	Lawhorn	2795 View Road	Milledgeville	aqrrhqo@qzillifpzf.com	1906967102
Fayola	Lea	1946 Cedar Road	Quakertown	oipskda@xlqandhdik.com	1943581122
Alka	Lees	1843 Ninth Avenue	Hondo	lzwpmzr@bqiqnnuzmb.com	2011866656
Heriberto	Leigh	4257 Hill Blvd.	Haddam	bsnwyee@gibwmuayrd.com	709625223
Rodolfo	Lemaster	949 Oak Street	Batavia	etsbbtw@hkyukseysu.com	1555186379
Mandy	Levesque	2439 Fifth Street	Lexington Park	wbualks@gumncwylvm.com	1387043000
Alima	Lindgren	3233 Second Circle	Montrose	zfyjigy@ivzjnfydjm.com	188609536
Maliyah	Lindgren	1505 Third Street	Vermilion	qivfltj@mavmcphcub.com	531461667
Chumani	Lomax	65 Pine Avenue	Harrisonville	jopjjlm@ivjfahqosg.com	407834818
Haruni	Malley	3831 Eighth Road	South Jordan	xpbixve@ulpzpszhiu.com	1588830195
Payton	Marcotte	380 Fourth Circle	Waco	ciobkea@dvzoopwuxy.com	1444787329
Jaime	Marr	3818 Main Circle	Abingdon	crxgyuw@otnoavxplf.com	266547073
Alden	Mcarthur	588 Washington Circle	North Bethesda	wrwtlbl@cjwvzdrhew.com	808565560
Meredith	Mccaffrey	526 First Avenue	Niles	yfzyjsj@esvaunpbqg.com	1905284194
Darren	Mccloskey	777 Seventh Avenue	Ulster	kfvdmsk@ptysrumhrz.com	697846267
Bryana	Mcghee	3084 Sixth Street	Hyde Park	ucpcyxn@fcggfuesgp.com	32125353
Eshe	Mcmillen	1402 Fifth Blvd.	Geneseo	iisniop@jpqemxwamo.com	388745496
Rahul	Mcqueen	1503 Washington Road	Washington	munogji@qmmuwcwflk.com	1184504163
Stephanie	Mcwhorter	380 View Road	Champaign	vskuwcz@zybwhzehfe.com	2134862007
Oliver	Meador	3212 Fifth Blvd.	Knoxville	kgpblub@mzvhfwjjbj.com	665964972
John	Miner	2603 Sixth Avenue	Pampa	pqlthdm@fhgxqbzzew.com	1
Saniyah	Miner	211 Park Circle	Seneca Falls	rdsoikk@hasmkypcbs.com	000002
Lucia	Miner	2729 Eighth Circle	Bellevue	bcmwlkj@cpnjcozirs.com	3
Preston	Miner	693 Ninth Road	Bayonet Point	vwqlmgw@zsmqhyirzw.com	000010
Jimmie	Miner	2691 Ninth Avenue	San Antonio	prquesm@sgiicmnhhi.com	12
Emile	Mortensen	4429 Eighth Circle	Knik-Fairview	awywxgy@uzvumgivgo.com	90967063
Myrtle	Mosier	3785 Eighth Street	Fullerton	wwtslcl@uhvwzjsipt.com	73191804
Moriah	Munson	3463 Fifth Road	Champlin	ybggelm@zaxcfdgfwq.com	58742331
Billye	Murray	3346 Main Road	Winchester	evomqyt@idunjegkbk.com	1211587643
Aria	Neely	341 Ninth Road	St. Marys	qbehkyz@ttzxyfoqoe.com	391997167
Greyson	Neff	1629 Fifth Circle	Wayland	iaprzpm@gnfgkfbdsm.com	1965181794
Iva	Neville	1403 Ninth Blvd.	Harrison	gdecfpa@xwsupjtdfp.com	1014212427
Jahola	Obryan	4496 Hill Street	Ridley Park	ymwqxxa@eodwhhzndr.com	569367012
Nanette	Olivas	415 Seventh Avenue	Groveton	ovacvxh@wbwunrlafp.com	906026811
Clifford	Padgett	4237 Oak Avenue	Macomb	wbfxuyu@rgldlwaavo.com	1427341936
Areli	Painter	504 Park Blvd.	Oxford	jfjpzzd@celxvjdmln.com	1282134684
Kaila	Patterson	4304 Cedar Street	Clermont	glehvph@vdincnvkml.com	581909073
Lucy	Paul	2114 Fourth Circle	Mount Vernon	zcrzfni@ocdxuuhylw.com	1689231296
Kyler	Perea	4512 Lake Blvd.	Warren	nwpcxlb@onvcyzcztl.com	831374281
Myranda	Pereira	4000 Fifth Road	Hudsonville	ejoyojb@gqiuemgzck.com	744702998
Huyen	Petit	4467 Cedar Blvd.	Ravenna	ngbovjq@ocaoltnfcy.com	1602396960
Livi	Petty	1228 Maple Road	Manville	ymszjwa@hbgulqummd.com	1757849410
Willow	Pickard	2439 Third Street	North Patchogue	xphjorf@jkokowlhjb.com	1581377003
Alessandro	Pike	2727 Park Street	Halfmoon	ogrpccy@ltpewimwxa.com	1365283761
Brooke	Porter	587 Sixth Street	Eastwood	lppdetn@mzuerhkxyn.com	150532514
Lionel	Putman	770 Eighth Blvd.	Honolulu	otbzsej@ppvusikwfu.com	1621288837
Brooklyn	Rankin	3770 Cedar Circle	Lee	fbdemsb@uorucmtkbi.com	686697164
Stevie	Redmond	1937 Ninth Avenue	Germantown	mnhxfwr@ozvgusqbyr.com	815523363
Ellenis	Reynoso	3681 Third Blvd.	Somers	cntklvy@rigjixjckb.com	756561531
Weston	Rickard	421 View Street	Shaker Heights	wijsmhd@wyeuzpsxuc.com	130107664
April	Ricker	3878 Fifth Circle	Fond du Lac	dkaijaq@dayhimuhty.com	228167632
Valentine	Ring	3311 Hill Circle	Lebanon	aqaezcu@mlzrrpnjwf.com	1349360632
Rutha	Rocha	3135 Second Street	Nixa	qwmvpsw@zmdqzwxomr.com	479977954
Anton	Rodgers	386 Seventh Road	Ankeny	jrbpuyq@xgwmuimdje.com	836561911
Mitzi	Rossi	1660 Third Blvd.	Lindenhurst	lmgjzcw@hetjuepmns.com	2133034357
Emil	Sabo	847 First Blvd.	Bonadelle Ranchos-Madera Ranchos	apprull@beuiauyfmg.com	2955381
Bennett	Saxton	1845 Fourth Blvd.	Littlefield	desoaex@ishidgxzal.com	1070840061
Zackary	Seaman	1702 Second Avenue	River Rouge	krqtwud@fxoheutmtb.com	510117654
Sienna	Seifert	2251 Fourth Circle	Bennsville	mwfjikt@sqtcufqwik.com	464361920
Johanna	Seward	4175 Washington Blvd.	Wappinger	saenned@sxkqryxrlf.com	792709375
Cassara	Shelton	4685 Pine Road	Mexico	shkvugg@kcmgnqhplh.com	1433000934
Tariq	Slade	4340 Fourth Avenue	Henderson	pxydvrg@odosgxsyoe.com	276122536
Alina	Smiley	1043 Eighth Avenue	Tarpon Springs	cswvjnz@enwyuqtslc.com	713207621
Kalonice	Soares	1006 Second Blvd.	Magalia	qltmjvx@jdwcztvdlc.com	1188945647
Kerwood	Soliz	963 Lake Street	Pimmit Hills	xpdstdn@snvqfxfcho.com	300573753
Lucien	Soriano	541 Washington Circle	Hopkins	qpomcgz@odloogekxm.com	1662812225
Cary	Stanton	3047 Sixth Road	Washington	gkcosep@qsiuqlguin.com	430937217
Theron	Stillwell	2103 Cedar Blvd.	Neosho	gmebpsx@rowujqctow.com	1370218707
Corine	Stock	860 Sixth Blvd.	Forestville	jtqjwgr@zditagjvnw.com	849337075
Kayin	Swearingen	3205 Maple Avenue	Kalaoa	nxsjicl@kphdtpmjwx.com	1623665961
Jeslyn	Taber	1518 Park Blvd.	Auburn	qakcisj@jjipwovdfs.com	1076090669
Ibrahim	Talbott	552 Cedar Circle	Monett	mgxtmer@adhnflvtjb.com	1078435383
Jihan	Tierney	147 Fifth Circle	Springfield	mwgycwf@oaymkuzovz.com	226164081
Zechariah	Toro	2469 Oak Circle	Eureka	ybefggh@yzkeyrqtlo.com	1352113663
Chaeli	Torres	744 Park Blvd.	Burr Ridge	gzdjqfn@bftmuimadr.com	1159809483
Feng	Tyler	211 Cedar Blvd.	San Benito	bhonkkv@abkhsdyrum.com	808711799
Kristie	Valles	667 Sixth Avenue	Grants Pass	qctrohn@gcaqrbszfr.com	323469017
Hardy	Veal	972 Hill Circle	White Bear Lake	ymdavlv@nslwphrlew.com	908152065
Cadence	Vickers	3794 Elm Blvd.	Wenatchee	sbfittv@ndziwbrfsf.com	1240196337
Daquan	Vinson	1181 Third Blvd.	Urbandale	nokaaux@iysenepaul.com	2000589113
Annabell	Vogel	285 Washington Blvd.	Rosedale	epabrse@megspovuau.com	489896623
Santo	Walston	1792 Lake Blvd.	Irondale	mlvcpem@wmfolpkkon.com	2095911842
Destiny	Wells	3705 Hill Blvd.	Eastwood	jrqxyue@etnnsvuruc.com	1158337675
Easton	Westmoreland	277 Eighth Circle	Rutland	eqsefqt@jfizdsodls.com	1665812602
Author	Whalen	2588 Cedar Street	Winter Park	gjduqph@ayxwwbxgud.com	1060706172
Montague	Wicker	4098 Lake Blvd.	Lebanon	mxjkpyh@nyfuirohmq.com	2035212905
Griffin	William	1256 Third Circle	Rosemount	udtlmyd@ewmrluozar.com	386352497
Morwen	Wolf	4216 Hill Blvd.	Kendallville	skgwnca@amwxzipdij.com	1909242522
Sienna	Woodall	276 Elm Blvd.	Kingston	fneivdl@rrxhzlvhvk.com	576147953
Bob	Worth	4052 Second Circle	Redmond	ddvsofm@ckxilinlft.com	858342830
