First Name	Last Name	Address	City	Email Address	Magic Number
Alina	2y;/el35 i.#mS	1043 Eighth Avenue	Tarpon Springs	cswvjnz@enwyuqtslc.com	713207621
Stevie	dno# md%#;e01R0	1937 Ninth Avenue	Germantown	mnhxfwr@ozvgusqbyr.com	815523363
Calida	epp/oH	224 Main Street	Sanford	nekdwkg@ejkexsuvwm.com	1692258320
Bryana	ee4h6gc3M	3084 Sixth Street	Hyde Park	ucpcyxn@fcggfuesgp.com	32125353
Lynna	h%c0r7uhC	1545 Sixth Blvd.	Crete	lbabcjj@mowrnrfwke.com	796005611
Ianessa	 r%en%no7@80C	2147 Main Road	Shelburne	kfvqiay@aewrfpreiq.com	868154933
Dalia	l!e6ah/cimraC2.	2393 View Street	El Paso	qpmgqcr@vtezigedzj.com	1657794797
Clifford	tte^gda&P	4237 Oak Avenue	Macomb	wbfxuyu@rgldlwaavo.com	1427341936
Tristan	20r01e d7niK#	1547 Park Avenue	North Castle	voufldd@hgyicvorqq.com	63959983
Livi	yt!1&2teP	1228 Maple Road	Manville	ymszjwa@hbgulqummd.com	1757849410
Royce	nnuG	2417 Pine Avenue	Gages Lake	nxtbxju@wtfdmiqsgm.com	409042561
Johanna	draweS	4175 Washington Blvd.	Wappinger	saenned@sxkqryxrlf.com	792709375
Jihan	y$36e!n\ r*1e*iT0	147 Fifth Circle	Springfield	mwgycwf@oaymkuzovz.com	226164081
Lourdes	odrallaG	3858 Ninth Blvd.	Ronkonkoma	ovimgng@ykqklbgdpw.com	403239639
Syed	$nil.&8hguoC//	1187 Hill Blvd.	Coral Springs	ipmshej@hhmfxhbssz.com	1704113486
Haruni	1yel0la&M	3831 Eighth Road	South Jordan	xpbixve@ulpzpszhiu.com	1588830195
Vonnie	ol $li9%dag5/leD	2946 Sixth Avenue	Succasunna-Kenvil	lgsccuw@jjukmfzcwz.com	163508389
Brandon	;91 *4$	3613 Pine Street	Savannah	luvbfjp@rgdanljcie.com	1746529574
Hollis	 yd^*or0B1	3268 First Blvd.	Brook Park	dibslqs@lndiqirzdo.com	724803066
Jazmine	sa0i5ra8$\F\	3576 Oak Circle	Franklin	dnvmidr@naeqpaohey.com	1452804859
Author	92ne$l%#5&ahW	2588 Cedar Street	Winter Park	gjduqph@ayxwwbxgud.com	1060706172
Steven	\4y$ddE	809 Seventh Blvd.	Anaconda	ihgjajt@udedolmxmz.com	653627120
Payton	et$toc$r!a3M06	380 Fourth Circle	Waco	ciobkea@dvzoopwuxy.com	1444787329
Fannie	yeltraH^5	2848 Fourth Circle	Newton	wubkihe@hxsisisxmw.com	1548856957
Lona	1 zt.lo0\H	2776 Fourth Avenue	Absecon	vpnplpk@pyxfjjyqru.com	1860955242
Alessandro	e.k\$i4P3!*	2727 Park Street	Halfmoon	ogrpccy@ltpewimwxa.com	1365283761
Cary	00no6t42*n6atS	3047 Sixth Road	Washington	gkcosep@qsiuqlguin.com	430937217
Kerwood	ziloS	963 Lake Street	Pimmit Hills	xpdstdn@snvqfxfcho.com	300573753
Gracelyn	krubr.ednuF	1157 Ninth Road	Orangeburg	xhxhyqv@uziqdfdzzf.com	1136809146
Maliyah	ner7\g#dni/1L	1505 Third Street	Vermilion	qivfltj@mavmcphcub.com	531461667
Merle	sser*dli%hC	2926 Second Street	Webster City	fmjqfuv@hgukueziuc.com	489212151
Cadence	\sre5k9ciV	3794 Elm Blvd.	Wenatchee	sbfittv@ndziwbrfsf.com	1240196337
Areli	yra^G3	1587 Elm Blvd.	Gretna	gkligtn@vwavyxydyc.com	786860570
Saniyah	#r2.73eni 7M4	211 Park Circle	Seneca Falls	rdsoikk@hasmkypcbs.com	000002
Theron	llewll.i8t!.S	2103 Cedar Blvd.	Neosho	gmebpsx@rowujqctow.com	1370218707
Milford	egdirhtE	3431 Fifth Road	Darlington	hutruln@mkxqaqdkhf.com	2029815323
Annalise	onaC	4075 Park Road	Big Spring	lmpazma@uxjtqkscnj.com	1156563361
Marsha	noe13!leD;	2485 Seventh Avenue	Hamilton	lmxvovv@cmdiyfdqag.com	737797097
Collin	*$ycna&0l66C\	1276 View Street	Wright-Patterson AFB	sgmfxtd@dqdmxnkeqz.com	56584833
Marguerite	lle6wd*laC.	1314 Main Circle	Bethesda	evzlvxu@btwyotuscy.com	113370400
Alden	r5$u@!5h77tracM	588 Washington Circle	North Bethesda	wrwtlbl@cjwvzdrhew.com	808565560
Kita	revraC	3362 Fifth Blvd.	Louisville	mxkewak@ijdorcxrlr.com	1614992233
Kayin	negn\i&&ra6ew!S&\	3205 Maple Avenue	Kalaoa	nxsjicl@kphdtpmjwx.com	1623665961
Tariq	02^*eda /!&lS	4340 Fourth Avenue	Henderson	pxydvrg@odosgxsyoe.com	276122536
Oran	naitsirhC	251 Park Circle	Belle Chasse	vilpeio@jcfbotzdlx.com	1490272791
Chumani	xamo;0L	65 Pine Avenue	Harrisonville	jopjjlm@ivjfahqosg.com	407834818
Alima	nergdniL3	3233 Second Circle	Montrose	zfyjigy@ivzjnfydjm.com	188609536
Billye	yar#ruM	3346 Main Road	Winchester	evomqyt@idunjegkbk.com	1211587643
Myranda	^.0ari$e8re&P&	4000 Fifth Road	Hudsonville	ejoyojb@gqiuemgzck.com	744702998
Sergio	llenn0oD	3978 First Blvd.	Dallas	njqhtje@ljmakbvtfb.com	272629184
Jahola	n7^2ay9r@bO	4496 Hill Street	Ridley Park	ymwqxxa@eodwhhzndr.com	569367012
Huyen	9titeP5!	4467 Cedar Blvd.	Ravenna	ngbovjq@ocaoltnfcy.com	1602396960
Auryon	e;;0g#a$1#%G#/	3930 Sixth Street	Mountain Top	tjnnwve@wftogqcchu.com	2093062212
Heba	9noel2e$D	2091 Eighth Road	Los Angeles	adszcim@accymrshdw.com	684047803
Milward	e2&so; 4/;J%3	1393 Lake Road	Lemay	booafkj@yxmbfhztxf.com	167083969
Brisbane	0e8r^ o*m;liG	570 Fifth Street	Souderton	irnjeiz@ywnekpxlsp.com	668664756
John	/r5\e0n&5i62M;!	2603 Sixth Avenue	Pampa	pqlthdm@fhgxqbzzew.com	1
Morwen	floW	4216 Hill Blvd.	Kendallville	skgwnca@amwxzipdij.com	1909242522
Alka	se48e\8L8	1843 Ninth Avenue	Hondo	lzwpmzr@bqiqnnuzmb.com	2011866656
Laverna	8\/$.	259 Seventh Avenue	Duarte	rmztzll@tfgwxsdbxc.com	1155589101
Giovanna	re6&1hp5/ots;ir$hC	642 Sixth Street	Festus	aqbhric@ajvctknzmc.com	1100763297
Elda	yd.anaC	2089 Pine Street	Jeffersontown	rahctso@rhtxmllepm.com	1735225707
Destiny	s1.^lleW	3705 Hill Blvd.	Eastwood	jrqxyue@etnnsvuruc.com	1158337675
Mitzi	is0^/\4s$oR	1660 Third Blvd.	Lindenhurst	lmgjzcw@hetjuepmns.com	2133034357
Montgomery	on4ala\ta05C$2	4290 Elm Blvd.	Gahanna	aovqywt@rtthnbsdyy.com	27598400
Bob	d.;3l2e3H	134 View Circle	Bound Brook	sknlysc@innewxswea.com	882619495
Brooke	retroP	587 Sixth Street	Eastwood	lppdetn@mzuerhkxyn.com	150532514
Easton	dn9a9l4er.om1tse&W1	277 Eighth Circle	Rutland	eqsefqt@jfizdsodls.com	1665812602
Syed	73nann&a1H	1254 Elm Street	Troy	bheggrp@oyzshuqhap.com	1887647253
Nanette	savi;lO	415 Seventh Avenue	Groveton	ovacvxh@wbwunrlafp.com	906026811
Bowen	s ot48@n#as1sole3.D0	2915 Fifth Street	Oxford	zthbtyg@woezrkberu.com	744278715
Lucia	r%e$20ni*52;M	2729 Eighth Circle	Bellevue	bcmwlkj@cpnjcozirs.com	3
Zelda	0 9%l^%7le#^w2diK	3514 Park Circle	Moorhead	bmexzqz@oxtoiijgwa.com	1749285212
Brady	#%&5m;51loH9	2848 Lake Road	Sutherlin	pwswezr@ybcifvltar.com	617129378
Merlin	7m$2i5r@77B	3791 Third Circle	Orono	kmdpdyy@tjwxyjyiwo.com	311739635
Bob	h.$#0\t4r3&oW	4052 Second Circle	Redmond	ddvsofm@ckxilinlft.com	858342830
Yosef	/&@z2na0r0F2/&	2018 Sixth Street	Skaneateles	nafynim@rxrixkcpsd.com	581667024
Hina	*edooG	1904 Washington Road	New Scotland	okusmtt@xcvzzperbe.com	86214202
Damell	77%.9.2kn%a56rF	2416 First Avenue	Glenn Heights	haajovd@vfeqbrnsrf.com	1586564496
Myrtle	&3r6\^e3i@s@$oM	3785 Eighth Street	Fullerton	wwtslcl@uhvwzjsipt.com	73191804
Willow	d;rakciP	2439 Third Street	North Patchogue	xphjorf@jkokowlhjb.com	1581377003
Noah	s0evaE^$	3275 Elm Blvd.	Shiloh	dqnmqkt@lbiuiuhrnv.com	257957483
Dorris	d00iac45ni%@%K	492 Oak Street	Batesville	hgbomzf@klwlevuskd.com	1082579644
Emile	ne*s$2n/et%roM69	4429 Eighth Circle	Knik-Fairview	awywxgy@uzvumgivgo.com	90967063
Jules	&rekooH\	1022 Third Circle	Municipality of Murrysville	orfojhm@mjczrgiyxf.com	1370561629
Remington	4 t^t!i/we#5D	4122 Cedar Avenue	Beverly	sjgqhba@dsibrjvizj.com	115135449
Claude	os4!le#K	4501 Cedar Road	Belpre	npibelo@nvoarrhkda.com	721924983
Li Ming	nin3o97rC	1676 Seventh Blvd.	Dunbar	jayvxes@aqzgqpewor.com	1181900858
Irene	y61aw/ol2;!laG9$	3891 Lake Circle	Altoona	nmetwsq@zmhzeioauv.com	386284744
Jimmie	re9n9#iM\33%8	2691 Ninth Avenue	San Antonio	prquesm@sgiicmnhhi.com	12
Christian	nit#ruC/	952 Sixth Road	Fresno	clhzmkb@wnpyfmzkci.com	1766938952
Ainsley	s$8$#m \r&a%6H	4022 Sixth Blvd.	Palm Bay	iyinefd@qqqnnzbkqp.com	514936764
Lucien	ona9!;2i0r#@oS5./	541 Washington Circle	Hopkins	qpomcgz@odloogekxm.com	1662812225
Deliz	repmeK	4413 First Street	Ponce	mqfwrdn@rgtggmkewv.com	153578344
Valentine	^!g0n4iR	3311 Hill Circle	Lebanon	aqaezcu@mlzrrpnjwf.com	1349360632
Bennett	n%@o/t8xa8 6S^2	1845 Fourth Blvd.	Littlefield	desoaex@ishidgxzal.com	1070840061
Kaila	nosretta%11P	4304 Cedar Street	Clermont	glehvph@vdincnvkml.com	581909073
Hardy	l301#\a2e70V/3	972 Hill Circle	White Bear Lake	ymdavlv@nslwphrlew.com	908152065
Iva	elliveN	1403 Ninth Blvd.	Harrison	gdecfpa@xwsupjtdfp.com	1014212427
Moriah	6%9n*os1n62u7M!!	3463 Fifth Road	Champlin	ybggelm@zaxcfdgfwq.com	58742331
Cassara	no3tl;4eh2S*	4685 Pine Road	Mexico	shkvugg@kcmgnqhplh.com	1433000934
Sienna	tr3e$;f8ie8^.& S	2251 Fourth Circle	Bennsville	mwfjikt@sqtcufqwik.com	464361920
Brandee	relsseK	1286 First Street	Kingsburg	actcjfj@tfhjybroun.com	1918613109
Latasha	ode^v6.e.cA9	1873 View Circle	Altus	otcjdxf@kvhsgwztfw.com	914650433
Darren	ye0ksolcc3^M@	777 Seventh Avenue	Ulster	kfvdmsk@ptysrumhrz.com	697846267
Aliana	yr@a3e0G	3653 Lake Street	Highlands	ondlckw@dlipnpdsck.com	71520666
Areli	18re!6$tn4iaP	504 Park Blvd.	Oxford	jfjpzzd@celxvjdmln.com	1282134684
Carl	^5lanip;6! .sE1	3751 Fourth Avenue	Ashwaubenon	uepwssf@pexgxegmom.com	962498466
Salma	ll/\!\\oc^sirD	2950 Main Blvd.	Andrews	ytdzzfd@btcxlrpbea.com	37458222
Lily	n*;a&20mua*B4\8	1592 Elm Street	Rosedale	yzzkuqp@zyttheczbj.com	1927774305
Lucy	luaP	2114 Fourth Circle	Mount Vernon	zcrzfni@ocdxuuhylw.com	1689231296
Trey	nomkcalB0	3238 Ninth Road	Harper Woods	crzdwsa@uyphqtsvrx.com	40165826
Terrell		2817 Ninth Avenue	West Livingston	pgbwloa@tquiftkrrx.com	1855871494
Lionel	;\n0\ amtu&P%	770 Eighth Blvd.	Honolulu	otbzsej@ppvusikwfu.com	1621288837
John	#@gi arC	1686 View Circle	Orland	jechxwg@jixlbpfmge.com	1096699374
Carleen	t$t/&ir704B	3900 Fifth Street	Le Roy	esicnrx@idafhpwktj.com	2085891345
Errol	^nru6*;bo!6C	768 Main Circle	Trooper	dbwxdhm@kwstfvyzgu.com	1374781724
Jaime	r./$7r!0a224M7	3818 Main Circle	Abingdon	crxgyuw@otnoavxplf.com	266547073
Ellenis	osony5e^R	3681 Third Blvd.	Somers	cntklvy@rigjixjckb.com	756561531
Heriberto	hgie%L	4257 Hill Blvd.	Haddam	bsnwyee@gibwmuayrd.com	709625223
Santo	notslaW	1792 Lake Blvd.	Irondale	mlvcpem@wmfolpkkon.com	2095911842
Aki	l&l.onK	2117 Oak Street	Collegeville	lglvvpk@jhdbrpwjre.com	178795451
Eshe	n@e8ll8i1#mc.*M0	1402 Fifth Blvd.	Geneseo	iisniop@jpqemxwamo.com	388745496
Marisa	k485c*i rd%@!a@e H	3293 Oak Road	Berea	jjytijx@mkjktrvlqm.com	913583437
Cerise	@$%^%*%%	3058 Ninth Avenue	Victorville	fzcwcqr@xsxsoqkmuu.com	1545794629
Preston	7^0r;0e2^niM#	693 Ninth Road	Bayonet Point	vwqlmgw@zsmqhyirzw.com	000010
Weston	d03r6 ak# 9ciR	421 View Street	Shaker Heights	wijsmhd@wyeuzpsxuc.com	130107664
Mandy	60e^.uq$/sev#e;L	2439 Fifth Street	Lexington Park	wbualks@gumncwylvm.com	1387043000
Nan	y\d0;naH4&/6&	1483 Cedar Blvd.	Fort Stewart	wkrvitu@gxzrerbooo.com	902019982
Kabira	y0ene*9/eF	1990 Main Circle	Deerpark	pmeqtfq@vypczzdvao.com	1321355937
Juliette	\e3*\00g^a% G4	881 Seventh Street	North Salt Lake	wogukgi@ghfzxmfksi.com	1902990166
Darryl	8 y0elt2ra04!6H	4030 View Blvd.	Granite City	dmcnssz@mkbtyxdwtm.com	413072707
Maurice	*7 namdooG%5	2472 First Avenue	Whitmore Lake	thyumnc@vtrzjyxeiw.com	1818098772
Feng	re lyT.	211 Cedar Blvd.	San Benito	bhonkkv@abkhsdyrum.com	808711799
Gefen	r6ek!col B	4469 First Road	Langley Park	nivovcx@pfpqzquswt.com	89392324
Barnaby	y% enne5K&	1537 View Street	Lake City	rsbbluf@rlceddfsjl.com	1341561180
Christen	t*ro!53F57%	1630 Eighth Circle	Worth	sfbzhzi@jvsmnyuzrq.com	223710941
Aria	5yl&/&@e08$*/eN	341 Ninth Road	St. Marys	qbehkyz@ttzxyfoqoe.com	391997167
Chantal	n4#amhsi1F	3773 Seventh Road	Brookhaven	mpwcngz@vgplefztyb.com	2038710450
April	rekciR	3878 Fifth Circle	Fond du Lac	dkaijaq@dayhimuhty.com	228167632
Ibrahim	tto*7$b*la%T	552 Cedar Circle	Monett	mgxtmer@adhnflvtjb.com	1078435383
Chaeli	s*e5rro.^T%!	744 Park Blvd.	Burr Ridge	gzdjqfn@bftmuimadr.com	1159809483
Kalonice	seraoS41	1006 Second Blvd.	Magalia	qltmjvx@jdwcztvdlc.com	1188945647
Bibiane	n/$0e;@&eK!	4496 Fourth Blvd.	Palos Hills	wdmykfg@bezckxqrwv.com	1865636407
Annabell	&le42go1353V8*6	285 Washington Blvd.	Rosedale	epabrse@megspovuau.com	489896623
Delilah	notsu7oH	428 Pine Avenue	Ridgeway	aythsjb@thdpzovkeg.com	768137776
Quinn	s#yeK	4404 Oak Circle	East Rutherford	htipuoa@jjsgtgeszw.com	108427292
Aileen	anod;3raC	3322 First Road	Streetsboro	ngxvsnu@idzopudfux.com	2133754797
Georgene	$180n73a6i l;3uJ	672 Elm Street	Hollis	ujerbdh@fclpwhejvy.com	1833296860
Kaylah	nrohwaL	2795 View Road	Milledgeville	aqrrhqo@qzillifpzf.com	1906967102
Darrell	s7\$n.ikn\5eJ^5*\	2311 First Street	Valley Station	lisidbz@eaqzjdqily.com	1871793412
Zackary	n0&a10ma% 5eS&	1702 Second Avenue	River Rouge	krqtwud@fxoheutmtb.com	510117654
Corine	$;k0cot S	860 Sixth Blvd.	Forestville	jtqjwgr@zditagjvnw.com	849337075
Andres	en%iatnoF	1760 Third Road	Holliston	pheigkt@xykpbkhkle.com	1904807959
Aurelia	n3o%sae$@lG7.9	4222 Lake Avenue	Bow	jdpzskf@wyzrdomrxx.com	171819942
Oliver	&.64&9rodaeM8	3212 Fifth Blvd.	Knoxville	kgpblub@mzvhfwjjbj.com	665964972
Myrtis	/7&l&liG	995 Third Road	Raymond	dpgnptj@pmzfwnkhrj.com	1890460018
Fayola	a&4e3L76%7	1946 Cedar Road	Quakertown	oipskda@xlqandhdik.com	1943581122
Jackie	n6e%2k\carB	3114 Main Road	Hasbrouck Heights	nuquqvo@fyevwbyqhi.com	1703885554
Barnaby	885d&nal9k3riK	1534 Maple Road	Yuba City	qbuytfc@tkhftldrpu.com	2063434854
Stephanie	re^tr2ohwc M	380 View Road	Champaign	vskuwcz@zybwhzehfe.com	2134862007
Domenic	9n04osillE*	2454 Park Street	New Kensington	zqesosm@cldjlrrboi.com	1668498177
Aleshanee	remaH	47 Pine Circle	Perry Heights	kkgykth@tltgkitosu.com	1159358443
Margery	@9renn@#@aD3	2417 Lake Road	Huron	hfcrwjo@awetybekfv.com	1839838979
Jeslyn	re%$/2baT	1518 Park Blvd.	Auburn	qakcisj@jjipwovdfs.com	1076090669
Harlen		609 View Street	Royalton	atamjdb@fcnjdtmzyp.com	1223215858
Allene	8eoC0&	1741 Fourth Road	Urbandale	dmkuich@fgapchxcpe.com	2144138898
Kyler	aer0eP6	4512 Lake Blvd.	Warren	nwpcxlb@onvcyzcztl.com	831374281
Deontae	^a.tsi0tu^6aB^	1227 Lake Blvd.	Elkhorn	yszavil@vbhylfbbwy.com	971926830
Anderson	*6gn4o\4h@!/C	1580 First Road	Aspen Hill	dplvwfb@rheuykkojg.com	1224193606
Meredith	y98erffaccM	526 First Avenue	Niles	yfzyjsj@esvaunpbqg.com	1905284194
Rollie	repsaJ	174 Third Blvd.	Medford	sfwrmcc@wmlfhibfyq.com	1271010182
Katia	s05nr8u4%3B9	1725 Lake Circle	Hickory Hills	qjdhyog@ckzuhrzsuo.com	661712634
Denton	2yb2*1so^57rC*7	976 Fifth Road	Waukegan	hbilgsc@mqmhljoiqw.com	8058029
Zechariah	69or30^oT@005	2469 Oak Circle	Eureka	ybefggh@yzkeyrqtlo.com	1352113663
Rhoda	na$m4ll5%aH	950 View Road	Roseville	edphqyy@fyxnnjzsxo.com	1974795778
Montague	 r#&770e8kci#W;2	4098 Lake Blvd.	Lebanon	mxjkpyh@nyfuirohmq.com	2035212905
Eternity	oh6#l$80 a/vr!aC	1514 Eighth Street	Northville	vhdtmpw@wklsmffigk.com	669414826
Sienna	ll@a8\do1oW&763	276 Elm Blvd.	Kingston	fneivdl@rrxhzlvhvk.com	576147953
Rutha	ahcoR	3135 Second Street	Nixa	qwmvpsw@zmdqzwxomr.com	479977954
Kingsley	3yel.ruC	2936 Ninth Road	Albuquerque	zhtuaba@jlzdsoigdc.com	1916056959
Heaven	.@9e96*6zal3.G4	2668 Ninth Circle	Bay St. Louis	gzpxquq@ugktwcvvxe.com	577808693
Brooklyn	ni/#k1n2^a3R9	3770 Cedar Circle	Lee	fbdemsb@uorucmtkbi.com	686697164
Rahul	n\e7eu/qc&8M	1503 Washington Road	Washington	munogji@qmmuwcwflk.com	1184504163
Rodolfo	&re1tsameL!	949 Oak Street	Batavia	etsbbtw@hkyukseysu.com	1555186379
Hallie	8enar8/C!$@/5	885 Main Street	Dyer	gxitfvo@fmiltsmknq.com	1015121398
Blossom	%/53d;y1o\@7B!	1039 Eighth Street	Exeter	ikicfav@qufxwawirm.com	539498484
Ermentrude	t ;8tekc@%e^B!!;2	4220 Elm Avenue	Spencer	xxdcplw@uylzpppobt.com	1574079865
Griffin	8mailliW	1256 Third Circle	Rosemount	udtlmyd@ewmrluozar.com	386352497
Anton	s0r7 !egd0oR0#@$	386 Seventh Road	Ankeny	jrbpuyq@xgwmuimdje.com	836561911
Kristie	s*e lla/V	667 Sixth Avenue	Grants Pass	qctrohn@gcaqrbszfr.com	323469017
Odell	yelru5C	1919 Fifth Road	Mercer Island	nbammav@mposiqykam.com	1248284767
Emil	o3;@.baS	847 First Blvd.	Bonadelle Ranchos-Madera Ranchos	apprull@beuiauyfmg.com	2955381
Greyson	f8fe9N	1629 Fifth Circle	Wayland	iaprzpm@gnfgkfbdsm.com	1965181794
Kaylin	/@s0n6reK	4631 Main Circle	Danville	agokwew@smyxwnlomf.com	1577712302
Darrian	gnohC	3766 Seventh Street	Harrisonburg	yuajrim@uzrvxpfckd.com	1479967993
Gorham	^^#0!.k%n1u7F#	4026 Main Avenue	Owensboro	timveee@nifsakhspg.com	1824871707
Genaro	a*0d;4r .1e#C	361 Maple Blvd.	Geneva	exrektx@rnskzhliho.com	1059743728
Daquan	no@0s@\55n9i0V	1181 Third Blvd.	Urbandale	nokaaux@iysenepaul.com	2000589113
Mardell	h /;c.5uo7\*rC/	4188 Oak Avenue	West Sacramento	bdcsaho@rckuuwajcy.com	681510721
